ONEWEB-0520             
1 54138U 22138AB  25117.27473008  .00000021  00000+0  20282-4 0  9994
2 54138  87.9255  27.6241 0001643  68.4764 291.6544 13.19724884121967
ONEWEB-0521             
1 54139U 22138AC  25117.30790049  .00000920  00000+0  22646-2 0  9998
2 54139  87.9254  27.6058 0002192  80.9451 279.1929 13.19732651121919
ONEWEB-0522             
1 54140U 22138AD  25117.51482345  .00000026  00000+0  31813-4 0  9995
2 54140  87.9255  27.5660 0001756  77.8707 282.2622 13.19727363121980
ONEWEB-0523             
1 54141U 22138AE  25117.20146364  .00000057  00000+0  10851-3 0  9992
2 54141  87.9308 357.2689 0002341 101.7364 258.4032 13.20771444124390
ONEWEB-0524             
1 54142U 22138AF  25117.64495529 -.00000023  00000+0 -88979-4 0  9993
2 54142  87.9306 357.1828 0001487 113.7591 246.3698 13.20771289124456
ONEWEB-0525             
1 54143U 22138AG  25117.30632160  .00000038  00000+0  61672-4 0  9996
2 54143  87.9258  27.6247 0001749  69.5822 290.5498 13.19726002121977
ONEWEB-0526             
1 54144U 22138AH  25117.49112748  .00000039  00000+0  64773-4 0  9998
2 54144  87.9254  27.5778 0001780  76.7687 283.3644 13.19724887121978
ONEWEB-0529             
1 54145U 22138AJ  25117.49429017 -.00000006  00000+0 -47149-4 0  9993
2 54145  87.9263  27.6153 0001708  72.3932 287.7387 13.19724549121991
